STARLINK-6274           
1 56776U 23078K   23286.44779864  .00002884  00000+0  25756-4 0  9991
2 56776  69.9999  33.2581 0002000 244.3552 115.7437 15.69909451 21520
STARLINK-5582           
1 56777U 23078L   23286.25002315  .00075046  00000+0  60796-2 0  9992
2 56777  70.0020  39.5563 0003390 267.6918  47.4717 14.99274325 21355
STARLINK-6304           
1 56778U 23078M   23286.44768885  .00001134  00000+0  11198-4 0  9996
2 56778  69.9983  33.2579 0003177 272.4307  87.6525 15.69923962 21526
STARLINK-6231           
1 56779U 23078N   23286.44653724  .00000676  00000+0  73929-5 0  9993
2 56779  69.9992  33.2555 0003763 274.6864  85.3902 15.69910703 21527
STARLINK-5963           
1 56780U 23078P   23286.58334491 -.00075857  00000+0 -62522-2 0  9996
2 56780  70.0010  38.7203 0003316 277.3077  42.2802 14.99341105 21407
STARLINK-5989           
1 56781U 23078Q   23286.25002315 -.00026775  00000+0 -22434-2 0  9991
2 56781  70.0019  39.3884 0003011 275.3716 189.8347 14.98352733 21353
STARLINK-6352           
1 56782U 23078R   23286.44758414  .00000670  00000+0  73415-5 0  9993
2 56782  70.0007  33.2582 0002878 262.9585  97.1283 15.69920340 21528
STARLINK-6357           
1 56783U 23078S   23286.44726525  .00001700  00000+0  15907-4 0  9998
2 56783  69.9982  33.2566 0003280 265.2894  94.7927 15.69920560 21529
STARLINK-6354           
1 56784U 23078T   23286.44748075  .00003859  00000+0  33856-4 0  9993
2 56784  70.0014  33.2593 0003081 256.8184 103.2669 15.69916372 21521
STARLINK-5931           
1 56785U 23078U   23286.58334491 -.00093484  00000+0 -77238-2 0  9997
2 56785  70.0023  38.6089 0003162 273.6411 134.5517 14.99353036 21401
STARLINK-6341           
1 56786U 23078V   23286.44716766  .00003707  00000+0  32606-4 0  9991
2 56786  69.9986  33.2565 0003474 264.1649  95.9150 15.69907030 21524
STARLINK-6326           
1 56787U 23078W   23285.68203149  .00003490  00000+0  30777-4 0  9999
2 56787  70.0005  35.4039 0002928 262.1488  97.9375 15.69927757 21149
STARLINK-6336           
1 56788U 23078X   23286.44683197 -.00001456  00000+0 -10341-4 0  9997
2 56788  69.9997  33.2544 0003653 280.1525  79.9258 15.69914032 21526
STARLINK-6325           
1 56789U 23078Y   23285.80840583  .00000633  00000+0  70313-5 0  9991
2 56789  69.9991  35.0431 0003051 262.2040  97.8809 15.69932078 21421
STARLINK-6345           
1 56790U 23078Z   23286.44674990 -.00000601  00000+0 -32302-5 0  9994
2 56790  69.9982  33.2533 0003358 286.8813  73.2014 15.69904908 21524
STARLINK-5977           
1 56791U 23078AA  23286.58334491 -.00041792  00000+0 -34262-2 0  9999
2 56791  70.0018  38.5316 0002880 274.7676 202.5303 14.99322572 21405
STARLINK-6046           
1 56792U 23078AB  23286.25002315  .00076338  00000+0  61828-2 0  9991
2 56792  70.0020  39.5001 0003266 269.3060  95.8595 14.99275456 21355
STARLINK-6052           
1 56793U 23078AC  23286.58334491 -.00037705  00000+0 -30884-2 0  9996
2 56793  70.0018  38.5044 0003297 272.4836 228.9459 14.99324055 21414
STARLINK-6060           
1 56794U 23078AD  23286.44600183  .00002773  00000+0  24824-4 0  9990
2 56794  69.9997  33.2505 0003248 263.8297  96.2529 15.69921436 21523
STARLINK-6061           
1 56795U 23078AE  23286.44442502  .00002067  00000+0  18965-4 0  9995
2 56795  69.9987  33.2455 0002768 269.7166  90.3712 15.69915155 21523
STARLINK-6049           
1 56796U 23078AF  23286.58334491 -.00061209  00000+0 -50342-2 0  9996
2 56796  70.0022  38.5880 0003152 276.7013 150.2187 14.99331780 21401
STARLINK-6058           
1 56797U 23078AG  23286.02232334  .00003869  00000+0  32373-3 0  9990
2 56797  70.0001  39.9121 0003461 274.5504  85.5261 14.99297963 21324
STARLINK-6068           
1 56798U 23078AH  23286.44578846  .00001621  00000+0  15247-4 0  9994
2 56798  69.9975  33.2499 0003490 268.4806  91.5990 15.69924120 21524
STARLINK-5953           
1 56799U 23078AJ  23286.58334491 -.00791863  00000+0 -69873-1 0  9993
2 56799  70.0016  38.3714 0003427 277.0116 342.7482 14.98983456 21413
STARLINK-6036           
1 56800U 23078AK  23286.58334491  .00003490  00000+0  30028-3 0  9998
2 56800  70.0017  38.5224 0002997 273.4501 211.6890 14.98316082 21405
STARLINK-6087           
1 56801U 23078AL  23285.80745763  .00002967  00000+0  26433-4 0  9995
2 56801  69.9991  35.0389 0003513 258.7406 101.3395 15.69924115 21421
STARLINK-6070           
1 56802U 23078AM  23286.44536224 -.00003373  00000+0 -26271-4 0  9991
2 56802  69.9989  33.2508 0002643 270.5074  89.5819 15.69948382 21529
STARLINK-6029           
1 56803U 23078AN  23286.58334491 -.00020802  00000+0 -16971-2 0  9999
2 56803  70.0017  38.4572 0003175 272.8413 270.6637 14.99306972 21410
STARLINK-6069           
1 56804U 23078AP  23286.44547293  .00002369  00000+0  21465-4 0  9993
2 56804  69.9986  33.2504 0003308 270.5852  89.4965 15.69922231 21523
STARLINK-6064           
1 56805U 23078AQ  23285.80778010  .00002292  00000+0  20826-4 0  9991
2 56805  69.9987  35.0390 0003202 266.8542  93.2288 15.69920342 21167
STARLINK-6072           
1 56806U 23078AR  23285.74427156  .00002198  00000+0  20043-4 0  9993
2 56806  69.9997  35.2192 0003452 270.8727  89.2073 15.69923527 21152
STARLINK-6073           
1 56807U 23078AS  23285.80683263  .00003572  00000+0  31469-4 0  9995
2 56807  69.9997  35.0365 0002789 262.4146  97.6733 15.69916711 21161
STARLINK-6042           
1 56808U 23078AT  23286.55797591  .00139686  00000+0  10380-2 0  9992
2 56808  69.9974  32.3973 0004360 290.0928  69.9799 15.72255050 21557
STARLINK-6040           
1 56809U 23078AU  23286.58334491 -.00924577  00000+0 -80973-1 0  9999
2 56809  70.0017  38.3727 0003344 277.6633 340.8709 14.99251790 21419
STARLINK-6031           
1 56810U 23078AV  23286.25002315  .00048170  00000+0  39197-2 0  9999
2 56810  70.0017  39.2677 0003406 269.6883 302.7752 14.99277512 21361
STARLINK-6063           
1 56811U 23078AW  23285.67908100  .00000857  00000+0  88936-5 0  9990
2 56811  69.9999  35.3917 0002919 259.2519 100.8348 15.69925166 21148
STARLINK-6065           
1 56812U 23078AX  23286.44431434  .00004036  00000+0  35313-4 0  9991
2 56812  70.0007  33.2452 0002989 257.1642 102.9219 15.69925986 21526
STARLINK-6056           
1 56813U 23078AY  23286.58334491 -.00000851  00000+0 -61903-4 0  9999
2 56813  70.0014  38.3375 0003391 274.9347  14.8387 14.99293344 21415
STARLINK-6059           
1 56814U 23078AZ  23286.25002315  .00007046  00000+0  58284-3 0  9999
2 56814  70.0016  39.2062 0003377 271.9981 355.2509 14.99305858 21362
STARLINK-6057           
1 56815U 23078BA  23285.91668981 -.00657389  00000+0 -25897-1 0  9994
2 56815  70.0006  41.5951 0003498 278.7856 122.8055 15.27927270  5934
STARLINK-6067           
1 56816U 23078BB  23286.44347056  .00004262  00000+0  37189-4 0  9995
2 56816  70.0011  33.2414 0002940 264.3575  95.7286 15.69928827 21525
STARLINK-5982           
1 56817U 23078BC  23286.58334491 -.00246520  00000+0 -20810-1 0  9997
2 56817  70.0018  38.3984 0003205 271.9671 323.7581 14.99381846 21413
STARLINK-6028           
1 56818U 23078BD  23286.58334491 -.00027397  00000+0 -22401-2 0  9996
2 56818  70.0010  38.2984 0003222 279.2718  45.4561 14.99300603 21415
STARLINK-30119          
1 56823U 23079A   23286.47425215 -.00195276  00000+0 -10946-1 0  9998
2 56823  42.9993 199.7145 0003558  42.3706 317.7415 15.13658230 20443
STARLINK-30120          
1 56824U 23079B   23286.44836723  .00040447  00000+0  21676-2 0  9996
2 56824  43.0020 200.3733 0002284 262.0089  98.0499 15.14340772 20439
STARLINK-30084          
1 56825U 23079C   23286.18123571  .00052736  00000+0  28160-2 0  9997
2 56825  43.0025 201.8087 0001399 239.9998 120.0710 15.14362607 20399
STARLINK-30114          
1 56826U 23079D   23286.46673163  .00005693  00000+0  43597-3 0  9998
2 56826  43.0007 199.4790 0001800 252.6366 107.4280 15.02550996 20456
STARLINK-30151          
1 56827U 23079E   23286.17793639  .00060327  00000+0  32168-2 0  9994
2 56827  43.0009 201.7837 0001583 268.9740  91.0925 15.14355599 20394
STARLINK-30152          
1 56828U 23079F   23286.17463288  .00038982  00000+0  20895-2 0  9995
2 56828  43.0016 201.7589 0001698 246.7612 113.3056 15.14349196 20395
STARLINK-30128          
1 56832U 23079K   23286.41406233  .00000165  00000+0  27290-4 0  9994
2 56832  43.0013 173.7041 0001618 259.2615 100.8045 15.02534940 20739
STARLINK-30131          
1 56833U 23079L   23286.40077460 -.00001646  00000+0 -10683-3 0  9994
2 56833  43.0027 173.7657 0001465 276.7987  83.2688 15.02522503 20733
STARLINK-30069          
1 56834U 23079M   23286.06100294 -.00221311  00000+0 -12364-1 0  9998
2 56834  43.0017 201.7685 0000205 207.5157 152.5678 15.13919916 20388
STARLINK-30144          
1 56835U 23079N   23286.16804446  .00070324  00000+0  37431-2 0  9997
2 56835  43.0019 201.7082 0001856 257.9088 102.1551 15.14350739 20392
STARLINK-30142          
1 56836U 23079P   23286.49454853  .00050552  00000+0  27026-2 0  9997
2 56836  43.0024 199.8589 0000892 283.0526  77.0221 15.14337582 20445
STARLINK-30133          
1 56837U 23079Q   23286.17657846  .00010493  00000+0  75018-3 0  9995
2 56837  43.0017 200.9091 0001639 269.6491  90.4165 15.04519945 20407
STARLINK-30123          
1 56838U 23079R   23285.47291168  .00028031  00000+0  20822-2 0  9998
2 56838  43.0019 204.9826 0000689 259.5238 100.5526 15.02529529 20299
STARLINK-30076          
1 56839U 23079S   23286.49066768  .00013397  00000+0  95379-3 0  9997
2 56839  43.0013 198.9725 0002241 266.3002  93.7585 15.04503840 20451
STARLINK-30073          
1 56840U 23079T   23285.87536098  .00027061  00000+0  20097-2 0  9995
2 56840  43.0012 189.8180 0001398 252.9354 107.1335 15.02552539 20831
STARLINK-30078          
1 56841U 23079U   23286.15484278  .00016863  00000+0  91364-3 0  9994
2 56841  43.0019 201.6069 0001656 253.4383 106.6281 15.14347849 20397
